{"type": "FeatureCollection", "features": [ {"type": "Feature", "properties": {"norad_id": 43437, "name": "SENTINEL-3B", "group": "resource", "lat": 38.97800131777596, "lon": -114.86578116506793, "alt_km": 798.8576712051872, "timestamp": "2025-12-18T23:35:48.704821+00:00", "meta": {"OBJECT_NAME": "SENTINEL-3B", "OBJECT_ID": "2018-039A", "EPOCH": "2025-12-18T14:31:31.948896", "MEAN_MOTION": 14.26736233, "ECCENTRICITY": 0.00016195, "INCLINATION": 98.6261, "RA_OF_ASC_NODE": 57.7064, "ARG_OF_PERICENTER": 95.816, "MEAN_ANOMALY": 264.3205, "EPHEMERIS_TYPE": 0, "CLASSIFICATION_TYPE": "U", "NORAD_CAT_ID": 43437, "ELEMENT_SET_NO": 999, "REV_AT_EPOCH": 39837, "BSTAR": 6.6264256e-05, "MEAN_MOTION_DOT": 1.17e-06, "MEAN_MOTION_DDOT": 0}, "tle": {"line1": "1 43437U 18039A   25352.60523089  .00000117  00000+0  66264-4 0  9998", "line2": "2 43437  98.6261  57.7064 0001619  95.8160 264.3205 14.26736233398379"}}, "geometry": {"type": "Point", "coordinates": [-114.86578116506793, 38.97800131777596]}}, {"type": "Feature", "properties": {"norad_id": 43461, "name": "GAOFEN-5 01", "group": "resource", "lat": 14.40033736797346, "lon": 138.2426351158196, "alt_km": 693.101211341851, "timestamp": "2025-12-18T23:35:48.704831+00:00", "meta": {"OBJECT_NAME": "GAOFEN-5 01", "OBJECT_ID": "2018-043A", "EPOCH": "2025-12-18T11:19:54.722496", "MEAN_MOTION": 14.60415951, "ECCENTRICITY": 6.174e-05, "INCLINATION": 98.4332, "RA_OF_ASC_NODE": 315.5396, "ARG_OF_PERICENTER": 309.3122, "MEAN_ANOMALY": 50.8023, "EPHEMERIS_TYPE": 0, "CLASSIFICATION_TYPE": "U", "NORAD_CAT_ID": 43461, "ELEMENT_SET_NO": 999, "REV_AT_EPOCH": 40531, "BSTAR": 8.3916457e-05, "MEAN_MOTION_DOT": 3.58e-06, "MEAN_MOTION_DDOT": 0}, "tle": {"line1": "1 43461U 18043A   25352.47216114  .00000358  00000+0  83916-4 0  9993", "line2": "2 43461  98.4332 315.5396 0000617 309.3122  50.8023 14.60415951405312"}}, "geometry": {"type": "Point", "coordinates": [138.2426351158196, 14.40033736797346]}}, {"type": "Feature", "properties": {"norad_id": 43484, "name": "GAOFEN-6", "group": "resource", "lat": 16.451296444806832, "lon": -120.63851188589187, "alt_km": 645.0798738633575, "timestamp": "2025-12-18T23:35:48.704841+00:00", "meta": {"OBJECT_NAME": "GAOFEN-6", "OBJECT_ID": "2018-048A", "EPOCH": "2025-12-18T14:43:44.366016", "MEAN_MOTION": 14.76576841, "ECCENTRICITY": 0.0012938, "INCLINATION": 97.8031, "RA_OF_ASC_NODE": 56.6837, "ARG_OF_PERICENTER": 46.2807, "MEAN_ANOMALY": 313.9473, "EPHEMERIS_TYPE": 0, "CLASSIFICATION_TYPE": "U", "NORAD_CAT_ID": 43484, "ELEMENT_SET_NO": 999, "REV_AT_EPOCH": 40674, "BSTAR": 0.00010795266, "MEAN_MOTION_DOT": 7.05e-06, "MEAN_MOTION_DDOT": 0}, "tle": {"line1": "1 43484U 18048A   25352.61370794  .00000705  00000+0  10795-3 0  9994", "line2": "2 43484  97.8031  56.6837 0012938  46.2807 313.9473 14.76576841406748"}}, "geometry": {"type": "Point", "coordinates": [-120.63851188589187, 16.451296444806832]}}, {"type": "Feature", "properties": {"norad_id": 43585, "name": "GAOFEN-11 01", "group": "resource", "lat": 17.89154602826025, "lon": -121.80939825339603, "alt_km": 420.4584815955959, "timestamp": "2025-12-18T23:35:48.704852+00:00", "meta": {"OBJECT_NAME": "GAOFEN-11 01", "OBJECT_ID": "2018-063A", "EPOCH": "2025-12-18T15:09:00.426816", "MEAN_MOTION": 15.49389651, "ECCENTRICITY": 0.00040595, "INCLINATION": 97.1561, "RA_OF_ASC_NODE": 55.5169, "ARG_OF_PERICENTER": 284.7898, "MEAN_ANOMALY": 75.2903, "EPHEMERIS_TYPE": 0, "CLASSIFICATION_TYPE": "U", "NORAD_CAT_ID": 43585, "ELEMENT_SET_NO": 999, "REV_AT_EPOCH": 41233, "BSTAR": 0.00029529008, "MEAN_MOTION_DOT": 0.00016122, "MEAN_MOTION_DDOT": 0}, "tle": {"line1": "1 43585U 18063A   25352.63125494  .00016122  00000+0  29529-3 0  9995", "line2": "2 43585  97.1561  55.5169 0004059 284.7898  75.2903 15.49389651412331"}}, "geometry": {"type": "Point", "coordinates": [-121.80939825339603, 17.89154602826025]}}, {"type": "Feature", "properties": {"norad_id": 43613, "name": "ICESAT-2", "group": "resource", "lat": 35.426251141670626, "lon": 63.850155141956975, "alt_km": 476.8035289520967, "timestamp": "2025-12-18T23:35:48.704862+00:00", "meta": {"OBJECT_NAME": "ICESAT-2", "OBJECT_ID": "2018-070A", "EPOCH": "2025-12-18T13:32:17.447712", "MEAN_MOTION": 15.28295146, "ECCENTRICITY": 0.00028421, "INCLINATION": 92.0051, "RA_OF_ASC_NODE": 242.309, "ARG_OF_PERICENTER": 129.1846, "MEAN_ANOMALY": 230.9656, "EPHEMERIS_TYPE": 0, "CLASSIFICATION_TYPE": "U", "NORAD_CAT_ID": 43613, "ELEMENT_SET_NO": 999, "REV_AT_EPOCH": 40487, "BSTAR": 0.00037024443, "MEAN_MOTION_DOT": 0.00010203, "MEAN_MOTION_DDOT": 0}, "tle": {"line1": "1 43613U 18070A   25352.56409083  .00010203  00000+0  37024-3 0  9999", "line2": "2 43613  92.0051 242.3090 0002842 129.1846 230.9656 15.28295146404870"}}, "geometry": {"type": "Point", "coordinates": [63.850155141956975, 35.426251141670626]}}, {"type": "Feature", "properties": {"norad_id": 43719, "name": "HYSIS", "group": "resource", "lat": -64.162070769284, "lon": -140.97416376909217, "alt_km": 641.5211905210845, "timestamp": "2025-12-18T23:35:48.704872+00:00", "meta": {"OBJECT_NAME": "HYSIS", "OBJECT_ID": "2018-096A", "EPOCH": "2025-12-18T14:22:13.561248", "MEAN_MOTION": 14.78660009, "ECCENTRICITY": 0.00011122, "INCLINATION": 98.0097, "RA_OF_ASC_NODE": 55.5482, "ARG_OF_PERICENTER": 51.5265, "MEAN_ANOMALY": 308.6045, "EPHEMERIS_TYPE": 0, "CLASSIFICATION_TYPE": "U", "NORAD_CAT_ID": 43719, "ELEMENT_SET_NO": 999, "REV_AT_EPOCH": 38073, "BSTAR": 0.00011031683, "MEAN_MOTION_DOT": 7.56e-06, "MEAN_MOTION_DDOT": 0}, "tle": {"line1": "1 43719U 18096A   25352.59876807  .00000756  00000+0  11032-3 0  9992", "line2": "2 43719  98.0097  55.5482 0001112  51.5265 308.6045 14.78660009380735"}}, "geometry": {"type": "Point", "coordinates": [-140.97416376909217, -64.162070769284]}}, {"type": "Feature", "properties": {"norad_id": 43783, "name": "KAZSTSAT", "group": "resource", "lat": -45.44002691873304, "lon": -159.74012804182934, "alt_km": 574.713360630918, "timestamp": "2025-12-18T23:35:48.704882+00:00", "meta": {"OBJECT_NAME": "KAZSTSAT", "OBJECT_ID": "2018-099AB", "EPOCH": "2025-12-18T14:35:01.050720", "MEAN_MOTION": 14.99363181, "ECCENTRICITY": 0.00059313, "INCLINATION": 97.4537, "RA_OF_ASC_NODE": 27.5404, "ARG_OF_PERICENTER": 304.033, "MEAN_ANOMALY": 56.033, "EPHEMERIS_TYPE": 0, "CLASSIFICATION_TYPE": "U", "NORAD_CAT_ID": 43783, "ELEMENT_SET_NO": 999, "REV_AT_EPOCH": 38424, "BSTAR": 3.4281152e-05, "MEAN_MOTION_DOT": 3.64e-06, "MEAN_MOTION_DDOT": 0}, "tle": {"line1": "1 43783U 18099AB  25352.60765105  .00000364  00000+0  34281-4 0  9993", "line2": "2 43783  97.4537  27.5404 0005931 304.0330  56.0330 14.99363181384248"}}, "geometry": {"type": "Point", "coordinates": [-159.74012804182934, -45.44002691873304]}}, {"type": "Feature", "properties": {"norad_id": 43831, "name": "SAUDISAT 5A", "group": "resource", "lat": 29.82871341038858, "lon": -122.7101408449114, "alt_km": 487.57812109566476, "timestamp": "2025-12-18T23:35:48.704893+00:00", "meta": {"OBJECT_NAME": "SAUDISAT 5A", "OBJECT_ID": "2018-102A", "EPOCH": "2025-12-18T15:04:24.086784", "MEAN_MOTION": 15.2572865, "ECCENTRICITY": 0.0011497, "INCLINATION": 97.335, "RA_OF_ASC_NODE": 52.7059, "ARG_OF_PERICENTER": 58.0551, "MEAN_ANOMALY": 302.1804, "EPHEMERIS_TYPE": 0, "CLASSIFICATION_TYPE": "U", "NORAD_CAT_ID": 43831, "ELEMENT_SET_NO": 999, "REV_AT_EPOCH": 38812, "BSTAR": 0.00020604705, "MEAN_MOTION_DOT": 5.192e-05, "MEAN_MOTION_DDOT": 0}, "tle": {"line1": "1 43831U 18102A   25352.62805656  .00005192  00000+0  20605-3 0  9998", "line2": "2 43831  97.3350  52.7059 0011497  58.0551 302.1804 15.25728650388123"}}, "geometry": {"type": "Point", "coordinates": [-122.7101408449114, 29.82871341038858]}}, {"type": "Feature", "properties": {"norad_id": 43833, "name": "SAUDISAT 5B", "group": "resource", "lat": -29.694940828084334, "lon": -128.41417771460453, "alt_km": 500.8936449243147, "timestamp": "2025-12-18T23:35:48.704902+00:00", "meta": {"OBJECT_NAME": "SAUDISAT 5B", "OBJECT_ID": "2018-102C", "EPOCH": "2025-12-18T14:48:45.205632", "MEAN_MOTION": 15.26077801, "ECCENTRICITY": 0.00122366, "INCLINATION": 97.3445, "RA_OF_ASC_NODE": 55.4444, "ARG_OF_PERICENTER": 60.3515, "MEAN_ANOMALY": 299.8941, "EPHEMERIS_TYPE": 0, "CLASSIFICATION_TYPE": "U", "NORAD_CAT_ID": 43833, "ELEMENT_SET_NO": 999, "REV_AT_EPOCH": 38823, "BSTAR": 0.00019541799, "MEAN_MOTION_DOT": 4.974e-05, "MEAN_MOTION_DDOT": 0}, "tle": {"line1": "1 43833U 18102C   25352.61718988  .00004974  00000+0  19542-3 0  9995", "line2": "2 43833  97.3445  55.4444 0012236  60.3515 299.8941 15.26077801388238"}}, "geometry": {"type": "Point", "coordinates": [-128.41417771460453, -29.694940828084334]}}, {"type": "Feature", "properties": {"norad_id": 44622, "name": "GAOFEN-10R", "group": "resource", "lat": -79.20481717586829, "lon": 72.7622286759415, "alt_km": 630.499182415956, "timestamp": "2025-12-18T23:35:48.704913+00:00", "meta": {"OBJECT_NAME": "GAOFEN-10R", "OBJECT_ID": "2019-066A", "EPOCH": "2025-12-18T14:19:03.196992", "MEAN_MOTION": 14.82811671, "ECCENTRICITY": 0.00074902, "INCLINATION": 98.0285, "RA_OF_ASC_NODE": 300.1257, "ARG_OF_PERICENTER": 24.9934, "MEAN_ANOMALY": 335.1641, "EPHEMERIS_TYPE": 0, "CLASSIFICATION_TYPE": "U", "NORAD_CAT_ID": 44622, "ELEMENT_SET_NO": 999, "REV_AT_EPOCH": 33561, "BSTAR": 0.00016146725, "MEAN_MOTION_DOT": 1.252e-05, "MEAN_MOTION_DDOT": 0}, "tle": {"line1": "1 44622U 19066A   25352.59656478  .00001252  00000+0  16147-3 0  9998", "line2": "2 44622  98.0285 300.1257 0007490  24.9934 335.1641 14.82811671335611"}}, "geometry": {"type": "Point", "coordinates": [72.7622286759415, -79.20481717586829]}}]}